HST                     
1 20580U 90037B   26068.15977042  .00009063  00000+0  30023-3 0  9999
2 20580  28.4717  43.6133 0001837 120.9992 239.0785 15.29473555773239
STARLINK-2178           
1 47760U 21017AQ  26068.64736085  .00004483  00000+0  16336-3 0  9996
2 47760  53.1605 216.9357 0001324  85.2685 274.8467 15.30209294277686
