[{"OBJECT_NAME":"HST","OBJECT_ID":"1990-037B","EPOCH":"2026-03-09T03:50:04.164288","MEAN_MOTION":15.29473555,"ECCENTRICITY":0.00018372,"INCLINATION":28.4717,"RA_OF_ASC_NODE":43.6133,"ARG_OF_PERICENTER":120.9992,"MEAN_ANOMALY":239.0785,"EPHEMERIS_TYPE":0,"CLASSIFICATION_TYPE":"U","NORAD_CAT_ID":20580,"ELEMENT_SET_NO":999,"REV_AT_EPOCH":77323,"BSTAR":0.0003002261,"MEAN_MOTION_DOT":9.063e-5,"MEAN_MOTION_DDOT":0},{"OBJECT_NAME":"STARLINK-2178","OBJECT_ID":"2021-017AQ","EPOCH":"2026-03-09T15:32:11.977440","MEAN_MOTION":15.30209294,"ECCENTRICITY":0.0001324,"INCLINATION":53.1605,"RA_OF_ASC_NODE":216.9357,"ARG_OF_PERICENTER":85.2685,"MEAN_ANOMALY":274.8467,"EPHEMERIS_TYPE":0,"CLASSIFICATION_TYPE":"U","NORAD_CAT_ID":47760,"ELEMENT_SET_NO":999,"REV_AT_EPOCH":27768,"BSTAR":0.00016336,"MEAN_MOTION_DOT":4.483e-5,"MEAN_MOTION_DDOT":0}]
